CCSDS_OMM_VERS,COMMENT,CREATION_DATE,ORIGINATOR,OBJECT_NAME,OBJECT_ID,CENTER_NAME,REF_FRAME,TIME_SYSTEM,MEAN_ELEMENT_THEORY,EPOCH,MEAN_MOTION,ECCENTRICITY,INCLINATION,RA_OF_ASC_NODE,ARG_OF_PERICENTER,MEAN_ANOMALY,EPHEMERIS_TYPE,CLASSIFICATION_TYPE,NORAD_CAT_ID,ELEMENT_SET_NO,REV_AT_EPOCH,BSTAR,MEAN_MOTION_DOT,MEAN_MOTION_DDOT,SEMIMAJOR_AXIS,PERIOD,APOAPSIS,PERIAPSIS,OBJECT_TYPE,RCS_SIZE,COUNTRY_CODE,LAUNCH_DATE,SITE,DECAY_DATE,FILE,GP_ID,TLE_LINE0,TLE_LINE1,TLE_LINE2
2,GENERATED VIA SPACE-TRACK.ORG API,2021-06-01T14:46:11,18 SPCS,JCSAT 2,1990-001B,EARTH,TEME,UTC,SGP4,2021-06-01T10:11:51.157824,0.98539597,0.0057447,14.527,25.9796,284.2533,282.4184,0,U,20402,999,9716,0.0,-1.73e-06,0,42657.427,1461.341,36524.346,36034.238,PAYLOAD,LARGE,JPN,1990-01-01,AFETR,,3046989,178276847,0 JCSAT 2,1 20402U 90001B   21152.42489766 -.00000173  00000-0  00000+0 0  9996,2 20402  14.5270  25.9796 0057447 284.2533 282.4184  0.98539597 97168
2,GENERATED VIA SPACE-TRACK.ORG API,2021-06-01T17:35:24,18 SPCS,JCSAT 2,1990-001B,EARTH,TEME,UTC,SGP4,2021-06-01T10:11:51.157824,0.98539597,0.0057447,14.527,25.9796,284.2533,282.4184,0,U,20402,999,9718,0.0,-1.73e-06,0,42657.427,1461.341,36524.346,36034.238,PAYLOAD,LARGE,JPN,1990-01-01,AFETR,,3047096,178283735,0 JCSAT 2,1 20402U 90001B   21152.42489766 -.00000173  00000-0  00000-0 0  9997,2 20402  14.5270  25.9796 0057447 284.2533 282.4184  0.98539597 97180
2,GENERATED VIA SPACE-TRACK.ORG API,2021-06-02T03:18:20,18 SPCS,JCSAT 2,1990-001B,EARTH,TEME,UTC,SGP4,2021-06-01T21:03:22.436064,0.98539744,0.0057416,14.5274,25.9758,284.2588,82.9201,0,U,20402,999,9719,0.0,-1.84e-06,0,42657.384,1461.339,36524.171,36034.328,PAYLOAD,LARGE,JPN,1990-01-01,AFETR,,3047333,178311842,0 JCSAT 2,1 20402U 90001B   21152.87734301 -.00000184  00000-0  00000-0 0  9996,2 20402  14.5274  25.9758 0057416 284.2588  82.9201  0.98539744 97196
2,GENERATED VIA SPACE-TRACK.ORG API,2021-06-02T17:23:18,18 SPCS,JCSAT 2,1990-001B,EARTH,TEME,UTC,SGP4,2021-06-02T10:17:25.532736,0.98539903,0.0057403,14.5278,25.9712,284.2707,278.5284,0,U,20402,999,9719,0.0,-1.97e-06,0,42657.338,1461.337,36524.069,36034.337,PAYLOAD,LARGE,JPN,1990-01-01,AFETR,,3047861,178345987,0 JCSAT 2,1 20402U 90001B   21153.42876774 -.00000197  00000-0  00000-0 0  9993,2 20402  14.5278  25.9712 0057403 284.2707 278.5284  0.98539903 97190
2,GENERATED VIA SPACE-TRACK.ORG API,2021-06-03T14:36:11,18 SPCS,JCSAT 2,1990-001B,EARTH,TEME,UTC,SGP4,2021-06-03T11:19:10.572096,0.98540173,0.0057351,14.5286,25.9624,284.2866,288.4814,0,U,20402,999,9718,0.0,-2.19e-06,0,42657.26,1461.333,36523.769,36034.482,PAYLOAD,LARGE,JPN,1990-01-01,AFETR,,3048357,178374465,0 JCSAT 2,1 20402U 90001B   21154.47165014 -.00000219  00000-0  00000+0 0  9991,2 20402  14.5286  25.9624 0057351 284.2866 288.4814  0.98540173 97188
2,GENERATED VIA SPACE-TRACK.ORG API,2021-06-03T19:18:04,18 SPCS,JCSAT 2,1990-001B,EARTH,TEME,UTC,SGP4,2021-06-03T13:50:23.499168,0.98540205,0.0057343,14.5287,25.9615,284.2882,325.7336,0,U,20402,999,9720,0.0,-2.21e-06,0,42657.251,1461.332,36523.726,36034.507,PAYLOAD,LARGE,JPN,1990-01-01,AFETR,,3048450,178380030,0 JCSAT 2,1 20402U 90001B   21154.57666087 -.00000221  00000-0  00000-0 0  9992,2 20402  14.5287  25.9615 0057343 284.2882 325.7336  0.98540205 97201
2,GENERATED VIA SPACE-TRACK.ORG API,2021-06-04T19:26:01,18 SPCS,JCSAT 2,1990-001B,EARTH,TEME,UTC,SGP4,2021-06-04T11:12:35.592768,0.98540333,0.0057298,14.5294,25.9542,284.2956,281.6068,0,U,20402,999,9721,0.0,-2.35e-06,0,42657.214,1461.331,36523.497,36034.662,PAYLOAD,LARGE,JPN,1990-01-01,AFETR,,3049136,178442131,0 JCSAT 2,1 20402U 90001B   21155.46707862 -.00000235  00000-0  00000-0 0  9993,2 20402  14.5294  25.9542 0057298 284.2956 281.6068  0.98540333 97214
2,GENERATED VIA SPACE-TRACK.ORG API,2021-06-05T04:36:17,18 SPCS,JCSAT 2,1990-001B,EARTH,TEME,UTC,SGP4,2021-06-04T21:19:09.729984,0.98540371,0.0057265,14.5297,25.9507,284.2962,71.0399,0,U,20402,999,9721,0.0,-2.41e-06,0,42657.203,1461.33,36523.345,36034.792,PAYLOAD,LARGE,JPN,1990-01-01,AFETR,,3049324,178469834,0 JCSAT 2,1 20402U 90001B   21155.88830706 -.00000241  00000-0  00000-0 0  9990,2 20402  14.5297  25.9507 0057265 284.2962  71.0399  0.98540371 97219
2,GENERATED VIA SPACE-TRACK.ORG API,2021-06-05T19:40:52,18 SPCS,JCSAT 2,1990-001B,EARTH,TEME,UTC,SGP4,2021-06-05T11:21:38.456064,0.98540421,0.0057239,14.5302,25.9459,284.2963,278.5925,0,U,20402,999,9722,0.0,-2.47e-06,0,42657.189,1461.329,36523.219,36034.888,PAYLOAD,LARGE,JPN,1990-01-01,AFETR,,3049772,178503220,0 JCSAT 2,1 20402U 90001B   21156.47336176 -.00000247  00000-0  00000-0 0  9994,2 20402  14.5302  25.9459 0057239 284.2963 278.5925  0.98540421 97220
2,GENERATED VIA SPACE-TRACK.ORG API,2021-06-05T22:36:11,18 SPCS,JCSAT 2,1990-001B,EARTH,TEME,UTC,SGP4,2021-06-05T13:42:42.823872,0.98540428,0.0057234,14.5303,25.945,284.2959,313.3476,0,U,20402,999,9720,0.0,-2.47e-06,0,42657.187,1461.329,36523.196,36034.908,PAYLOAD,LARGE,JPN,1990-01-01,AFETR,,3049879,178523267,0 JCSAT 2,1 20402U 90001B   21156.57132898 -.00000247  00000-0  00000+0 0  9999,2 20402  14.5303  25.9450 0057234 284.2959 313.3476  0.98540428 97206
2,GENERATED VIA SPACE-TRACK.ORG API,2021-06-06T03:00:25,18 SPCS,JCSAT 2,1990-001B,EARTH,TEME,UTC,SGP4,2021-06-05T21:24:25.649856,0.9854041,0.0057211,14.5305,25.9424,284.2988,67.0915,0,U,20402,999,9722,0.0,-2.5e-06,0,42657.192,1461.329,36523.103,36035.011,PAYLOAD,LARGE,JPN,1990-01-01,AFETR,,3050001,178530227,0 JCSAT 2,1 20402U 90001B   21156.89196354 -.00000250  00000-0  00000-0 0  9996,2 20402  14.5305  25.9424 0057211 284.2988  67.0915  0.98540410 97220
2,GENERATED VIA SPACE-TRACK.ORG API,2021-06-06T17:35:27,18 SPCS,JCSAT 2,1990-001B,EARTH,TEME,UTC,SGP4,2021-06-06T10:39:14.123808,0.98540373,0.0057191,14.531,25.9379,284.3055,262.8919,0,U,20402,999,9723,0.0,-2.52e-06,0,42657.203,1461.33,36523.029,36035.107,PAYLOAD,LARGE,JPN,1990-01-01,AFETR,,3050451,178563332,0 JCSAT 2,1 20402U 90001B   21157.44391347 -.00000252  00000-0  00000-0 0  9999,2 20402  14.5310  25.9379 0057191 284.3055 262.8919  0.98540373 97236
2,GENERATED VIA SPACE-TRACK.ORG API,2021-06-07T02:43:46,18 SPCS,JCSAT 2,1990-001B,EARTH,TEME,UTC,SGP4,2021-06-06T12:18:15.804288,0.98540367,0.0057189,14.531,25.9373,284.3076,287.2863,0,U,20402,999,9723,0.0,-2.52e-06,0,42657.205,1461.33,36523.022,36035.117,PAYLOAD,LARGE,JPN,1990-01-01,AFETR,,3050681,178591671,0 JCSAT 2,1 20402U 90001B   21157.51268292 -.00000252  00000-0  00000-0 0  9999,2 20402  14.5310  25.9373 0057189 284.3076 287.2863  0.98540367 97232
2,GENERATED VIA SPACE-TRACK.ORG API,2021-06-07T18:15:06,18 SPCS,JCSAT 2,1990-001B,EARTH,TEME,UTC,SGP4,2021-06-07T12:47:48.054912,0.98540247,0.0057144,14.5319,25.9288,284.321,289.3068,0,U,20402,999,9724,0.0,-2.51e-06,0,42657.239,1461.332,36522.865,36035.344,PAYLOAD,LARGE,JPN,1990-01-01,AFETR,,3051140,178624845,0 JCSAT 2,1 20402U 90001B   21158.53319508 -.00000251  00000-0  00000-0 0  9998,2 20402  14.5319  25.9288 0057144 284.3210 289.3068  0.98540247 97245
2,GENERATED VIA SPACE-TRACK.ORG API,2021-06-08T06:36:11,18 SPCS,JCSAT 2,1990-001B,EARTH,TEME,UTC,SGP4,2021-06-07T23:18:00.942336,0.9854018,0.0057122,14.5323,25.9252,284.3268,84.5607,0,U,20402,999,9723,0.0,-2.49e-06,0,42657.258,1461.333,36522.79,36035.457,PAYLOAD,LARGE,JPN,1990-01-01,AFETR,,3051458,178696381,0 JCSAT 2,1 20402U 90001B   21158.97084424 -.00000249  00000-0  00000+0 0  9998,2 20402  14.5323  25.9252 0057122 284.3268  84.5607  0.98540180 97239
2,GENERATED VIA SPACE-TRACK.ORG API,2021-06-08T18:36:59,18 SPCS,JCSAT 2,1990-001B,EARTH,TEME,UTC,SGP4,2021-06-08T11:20:15.239040,0.98540041,0.0057097,14.5326,25.921,284.3217,262.4942,0,U,20402,999,9725,0.0,-2.44e-06,0,42657.299,1461.335,36522.724,36035.603,PAYLOAD,LARGE,JPN,1990-01-01,AFETR,,3051832,178709311,0 JCSAT 2,1 20402U 90001B   21159.47239860 -.00000244  00000-0  00000-0 0  9996,2 20402  14.5326  25.9210 0057097 284.3217 262.4942  0.98540041 97258
2,GENERATED VIA SPACE-TRACK.ORG API,2021-06-09T03:34:06,18 SPCS,JCSAT 2,1990-001B,EARTH,TEME,UTC,SGP4,2021-06-08T12:52:09.090912,0.98540033,0.0057093,14.5327,25.9205,284.3202,285.1357,0,U,20402,999,9725,0.0,-2.44e-06,0,42657.301,1461.335,36522.709,36035.623,PAYLOAD,LARGE,JPN,1990-01-01,AFETR,,3052044,178736410,0 JCSAT 2,1 20402U 90001B   21159.53621633 -.00000244  00000-0  00000-0 0  9996,2 20402  14.5327  25.9205 0057093 284.3202 285.1357  0.98540033 97256
2,GENERATED VIA SPACE-TRACK.ORG API,2021-06-09T19:15:11,18 SPCS,JCSAT 2,1990-001B,EARTH,TEME,UTC,SGP4,2021-06-09T11:25:30.893664,0.98539757,0.0057046,14.5335,25.9127,284.3175,258.5505,0,U,20402,999,9726,0.0,-2.31e-06,0,42657.381,1461.339,36522.589,36035.902,PAYLOAD,LARGE,JPN,1990-01-01,AFETR,,3052558,178770639,0 JCSAT 2,1 20402U 90001B   21160.47605201 -.00000231  00000-0  00000-0 0  9990,2 20402  14.5335  25.9127 0057046 284.3175 258.5505  0.98539757 97266
2,GENERATED VIA SPACE-TRACK.ORG API,2021-06-10T20:44:28,18 SPCS,JCSAT 2,1990-001B,EARTH,TEME,UTC,SGP4,2021-06-10T11:30:47.109888,0.98539337,0.0056999,14.5343,25.9044,284.3117,254.607,0,U,20402,999,9727,0.0,-2.12e-06,0,42657.502,1461.345,36522.51,36036.223,PAYLOAD,LARGE,JPN,1990-01-01,AFETR,,3052866,178822246,0 JCSAT 2,1 20402U 90001B   21161.47971192 -.00000212  00000-0  00000-0 0  9995,2 20402  14.5343  25.9044 0056999 284.3117 254.6070  0.98539337 97274
2,GENERATED VIA SPACE-TRACK.ORG API,2021-06-11T18:19:07,18 SPCS,JCSAT 2,1990-001B,EARTH,TEME,UTC,SGP4,2021-06-11T11:36:02.164032,0.98538911,0.0056958,14.5351,25.896,284.3088,250.6563,0,U,20402,999,9728,0.0,-1.89e-06,0,42657.625,1461.352,36522.459,36036.52,PAYLOAD,LARGE,JPN,1990-01-01,AFETR,,3053287,178877691,0 JCSAT 2,1 20402U 90001B   21162.48335838 -.00000189  00000-0  00000-0 0  9991,2 20402  14.5351  25.8960 0056958 284.3088 250.6563  0.98538911 97282
